"{\n    \"CCSDS_OMM_VERS\": \"2.0\",\n    \"COMMENT\": \"GENERATED VIA SPACE-TRACK.ORG API\",\n    \"CREATION_DATE\": \"2025-08-31T11:35:43\",\n    \"ORIGINATOR\": \"18 SPCS\",\n    \"OBJECT_NAME\": \"BEIDOU 3M22\",\n    \"OBJECT_ID\": \"2019-078B\",\n    \"CENTER_NAME\": \"EARTH\",\n    \"REF_FRAME\": \"TEME\",\n    \"TIME_SYSTEM\": \"UTC\",\n    \"MEAN_ELEMENT_THEORY\": \"SGP4\",\n    \"EPOCH\": \"2025-08-30T17:26:04.261344\",\n    \"MEAN_MOTION\": \"1.8622789945\",\n    \"ECCENTRICITY\": \"0.00026240958\",\n    \"INCLINATION\": \"54.171416\",\n    \"RA_OF_ASC_NODE\": \"310.00309\",\n    \"ARG_OF_PERICENTER\": \"19.73011\",\n    \"MEAN_ANOMALY\": \"340.3453\",\n    \"EPHEMERIS_TYPE\": \"0\",\n    \"CLASSIFICATION_TYPE\": \"U\",\n    \"NORAD_CAT_ID\": \"44794\",\n    \"ELEMENT_SET_NO\": \"999\",\n    \"REV_AT_EPOCH\": \"3924\",\n    \"BSTAR\": \"0\",\n    \"MEAN_MOTION_DOT\": \"-0.000000658158\",\n    \"MEAN_MOTION_DDOT\": \"0\",\n    \"TLE_LINE0\": \"0 BEIDOU 3M22\",\n    \"TLE_LINE1\": \"1 44794U 19078B   25242.72643821 -.00000066  00000-0  00000-0 0  9994\",\n    \"TLE_LINE2\": \"2 44794  54.1714 310.0031 0002624  19.7301 340.3453  1.86227899 39247\",\n    \"SEMIMAJOR_AXIS\": \"27906.498\",\n    \"PERIOD\": \"773.246\",\n    \"APOAPSIS\": \"21535.686\",\n    \"PERIAPSIS\": \"21521.040\",\n    \"OBJECT_TYPE\": \"PAYLOAD\",\n    \"DECAYED\": \"0\"\n}"